{
  "type": "FeatureCollection",
  "features": [
    {
      "type": "Feature",
      "properties": {
        "norad_id": 31725,
        "name": "FENGYUN 1C DEB",
        "group": "fengyun-1c-debris",
        "lat": 80.32315369321122,
        "lon": 92.08298854704435,
        "alt_km": 1485.1911621526397,
        "timestamp": "2025-12-08T23:34:04.253290+00:00",
        "meta_object_name": "FENGYUN 1C DEB",
        "meta_object_id": "1999-025CDY",
        "meta_epoch": "2025-12-07T20:49:59.663424",
        "meta_mean_motion": 12.79163531,
        "meta_eccentricity": 0.06943994,
        "meta_inclination": 99.1802,
        "meta_ra_of_asc_node": 199.6743,
        "meta_arg_of_pericenter": 345.7659,
        "meta_mean_anomaly": 12.4721,
        "meta_ephemeris_type": 0,
        "meta_classification_type": "U",
        "meta_norad_cat_id": 31725,
        "meta_element_set_no": 999,
        "meta_rev_at_epoch": 86419,
        "meta_bstar": 0.0045755378,
        "meta_mean_motion_dot": 2.821e-05,
        "meta_mean_motion_ddot": 0,
        "tle_line1": "1 31725U 99025CDY 25341.86805166  .00002821  00000+0  45755-2 0  9998",
        "tle_line2": "2 31725  99.1802 199.6743 0694399 345.7659  12.4721 12.79163531864190"
      },
      "geometry": {
        "type": "Point",
        "coordinates": [
          92.08298854704435,
          80.32315369321122
        ]
      }
    },
    {
      "type": "Feature",
      "properties": {
        "norad_id": 31727,
        "name": "FENGYUN 1C DEB",
        "group": "fengyun-1c-debris",
        "lat": -62.43788596816339,
        "lon": 112.31882930765798,
        "alt_km": 762.7587524848987,
        "timestamp": "2025-12-08T23:34:04.253300+00:00",
        "meta_object_name": "FENGYUN 1C DEB",
        "meta_object_id": "1999-025CEA",
        "meta_epoch": "2025-12-07T06:13:33.792960",
        "meta_mean_motion": 14.36924815,
        "meta_eccentricity": 0.0032091,
        "meta_inclination": 98.8668,
        "meta_ra_of_asc_node": 93.1427,
        "meta_arg_of_pericenter": 357.0639,
        "meta_mean_anomaly": 33.7228,
        "meta_ephemeris_type": 0,
        "meta_classification_type": "U",
        "meta_norad_cat_id": 31727,
        "meta_element_set_no": 999,
        "meta_rev_at_epoch": 71590,
        "meta_bstar": 0.002993435,
        "meta_mean_motion_dot": 8.877e-05,
        "meta_mean_motion_ddot": 0,
        "tle_line1": "1 31727U 99025CEA 25341.25941890  .00008877  00000+0  29934-2 0  9996",
        "tle_line2": "2 31727  98.8668  93.1427 0032091 357.0639  33.7228 14.36924815715901"
      },
      "geometry": {
        "type": "Point",
        "coordinates": [
          112.31882930765798,
          -62.43788596816339
        ]
      }
    },
    {
      "type": "Feature",
      "properties": {
        "norad_id": 31731,
        "name": "FENGYUN 1C DEB",
        "group": "fengyun-1c-debris",
        "lat": 66.22000695481948,
        "lon": 9.012457556773157,
        "alt_km": 745.1541256459268,
        "timestamp": "2025-12-08T23:34:04.253310+00:00",
        "meta_object_name": "FENGYUN 1C DEB",
        "meta_object_id": "1999-025CEE",
        "meta_epoch": "2025-11-27T02:07:07.827456",
        "meta_mean_motion": 14.40063792,
        "meta_eccentricity": 0.00116613,
        "meta_inclination": 99.3084,
        "meta_ra_of_asc_node": 17.9462,
        "meta_arg_of_pericenter": 144.9647,
        "meta_mean_anomaly": 215.2308,
        "meta_ephemeris_type": 0,
        "meta_classification_type": "U",
        "meta_norad_cat_id": 31731,
        "meta_element_set_no": 999,
        "meta_rev_at_epoch": 95605,
        "meta_bstar": 0.0018623031,
        "meta_mean_motion_dot": 5.831e-05,
        "meta_mean_motion_ddot": 0,
        "tle_line1": "1 31731U 99025CEE 25331.08828504  .00005831  00000+0  18623-2 0  9997",
        "tle_line2": "2 31731  99.3084  17.9462 0011661 144.9647 215.2308 14.40063792956051"
      },
      "geometry": {
        "type": "Point",
        "coordinates": [
          9.012457556773157,
          66.22000695481948
        ]
      }
    },
    {
      "type": "Feature",
      "properties": {
        "norad_id": 31732,
        "name": "FENGYUN 1C DEB",
        "group": "fengyun-1c-debris",
        "lat": 9.589520733838064,
        "lon": 16.434195188424372,
        "alt_km": 864.514056803906,
        "timestamp": "2025-12-08T23:34:04.253321+00:00",
        "meta_object_name": "FENGYUN 1C DEB",
        "meta_object_id": "1999-025CEF",
        "meta_epoch": "2025-12-07T08:24:47.683296",
        "meta_mean_motion": 14.12243574,
        "meta_eccentricity": 0.00393588,
        "meta_inclination": 98.5735,
        "meta_ra_of_asc_node": 16.3342,
        "meta_arg_of_pericenter": 260.9919,
        "meta_mean_anomaly": 98.6798,
        "meta_ephemeris_type": 0,
        "meta_classification_type": "U",
        "meta_norad_cat_id": 31732,
        "meta_element_set_no": 999,
        "meta_rev_at_epoch": 64254,
        "meta_bstar": 0.00053543598,
        "meta_mean_motion_dot": 9.5e-06,
        "meta_mean_motion_ddot": 0,
        "tle_line1": "1 31732U 99025CEF 25341.35055189  .00000950  00000+0  53544-3 0  9999",
        "tle_line2": "2 31732  98.5735  16.3342 0039358 260.9919  98.6798 14.12243574642549"
      },
      "geometry": {
        "type": "Point",
        "coordinates": [
          16.434195188424372,
          9.589520733838064
        ]
      }
    },
    {
      "type": "Feature",
      "properties": {
        "norad_id": 31734,
        "name": "FENGYUN 1C DEB",
        "group": "fengyun-1c-debris",
        "lat": 46.41342374683557,
        "lon": -33.817872710258214,
        "alt_km": 725.147037262127,
        "timestamp": "2025-12-08T23:34:04.253331+00:00",
        "meta_object_name": "FENGYUN 1C DEB",
        "meta_object_id": "1999-025CEH",
        "meta_epoch": "2025-12-07T17:06:17.102016",
        "meta_mean_motion": 14.28996456,
        "meta_eccentricity": 0.01041764,
        "meta_inclination": 98.4963,
        "meta_ra_of_asc_node": 333.9805,
        "meta_arg_of_pericenter": 22.3457,
        "meta_mean_anomaly": 338.2216,
        "meta_ephemeris_type": 0,
        "meta_classification_type": "U",
        "meta_norad_cat_id": 31734,
        "meta_element_set_no": 999,
        "meta_rev_at_epoch": 96379,
        "meta_bstar": 0.00083063355,
        "meta_mean_motion_dot": 2.185e-05,
        "meta_mean_motion_ddot": 0,
        "tle_line1": "1 31734U 99025CEH 25341.71269794  .00002185  00000+0  83063-3 0  9991",
        "tle_line2": "2 31734  98.4963 333.9805 0104176  22.3457 338.2216 14.28996456963795"
      },
      "geometry": {
        "type": "Point",
        "coordinates": [
          -33.817872710258214,
          46.41342374683557
        ]
      }
    },
    {
      "type": "Feature",
      "properties": {
        "norad_id": 31735,
        "name": "FENGYUN 1C DEB",
        "group": "fengyun-1c-debris",
        "lat": 48.70192198215014,
        "lon": -83.81185620787504,
        "alt_km": 786.355096169219,
        "timestamp": "2025-12-08T23:34:04.253342+00:00",
        "meta_object_name": "FENGYUN 1C DEB",
        "meta_object_id": "1999-025CEJ",
        "meta_epoch": "2025-12-08T12:58:23.597760",
        "meta_mean_motion": 14.42527682,
        "meta_eccentricity": 0.00588952,
        "meta_inclination": 98.5803,
        "meta_ra_of_asc_node": 85.8475,
        "meta_arg_of_pericenter": 297.1905,
        "meta_mean_anomaly": 62.3289,
        "meta_ephemeris_type": 0,
        "meta_classification_type": "U",
        "meta_norad_cat_id": 31735,
        "meta_element_set_no": 999,
        "meta_rev_at_epoch": 96604,
        "meta_bstar": 0.00075954133,
        "meta_mean_motion_dot": 2.526e-05,
        "meta_mean_motion_ddot": 0,
        "tle_line1": "1 31735U 99025CEJ 25342.54055090  .00002526  00000+0  75954-3 0  9995",
        "tle_line2": "2 31735  98.5803  85.8475 0058895 297.1905  62.3289 14.42527682966045"
      },
      "geometry": {
        "type": "Point",
        "coordinates": [
          -83.81185620787504,
          48.70192198215014
        ]
      }
    },
    {
      "type": "Feature",
      "properties": {
        "norad_id": 31736,
        "name": "FENGYUN 1C DEB",
        "group": "fengyun-1c-debris",
        "lat": 9.939784831990345,
        "lon": 166.53620489271876,
        "alt_km": 845.6595674016626,
        "timestamp": "2025-12-08T23:34:04.253352+00:00",
        "meta_object_name": "FENGYUN 1C DEB",
        "meta_object_id": "1999-025CEK",
        "meta_epoch": "2025-12-07T06:00:46.728576",
        "meta_mean_motion": 14.14178475,
        "meta_eccentricity": 0.00109922,
        "meta_inclination": 98.6782,
        "meta_ra_of_asc_node": 343.321,
        "meta_arg_of_pericenter": 257.8319,
        "meta_mean_anomaly": 102.1623,
        "meta_ephemeris_type": 0,
        "meta_classification_type": "U",
        "meta_norad_cat_id": 31736,
        "meta_element_set_no": 999,
        "meta_rev_at_epoch": 63987,
        "meta_bstar": 0.00026653832,
        "meta_mean_motion_dot": 4.65e-06,
        "meta_mean_motion_ddot": 0,
        "tle_line1": "1 31736U 99025CEK 25341.25054084  .00000465  00000+0  26654-3 0  9998",
        "tle_line2": "2 31736  98.6782 343.3210 0010992 257.8319 102.1623 14.14178475639874"
      },
      "geometry": {
        "type": "Point",
        "coordinates": [
          166.53620489271876,
          9.939784831990345
        ]
      }
    }
  ]
}